"METAR for:KIWA (Phoenix/Mesa Gateway, AZ, US) "
Text:KIWA 050147Z 11013KT 10SM SKC 14/M13 A3033
Temperature: 14.0°„C ( 57°„F)
Dewpoint:-13.0°„C (  9°„F) [RH =  14%]
Pressure (altimeter):30.33 inches Hg (1027.2 mb)
Winds:from the ESE (110 degrees) at  15 MPH (13 knots;  6.7 m/s)
Visibility:10 or more sm (16+ km)
"Ceiling:at least 12,000 feet AGL"
Clouds:clear skies
